[{"OBJECT_NAME":"LYNK TOWER 6","OBJECT_ID":"2024-043AB","EPOCH":"2026-03-09T21:28:38.303328","MEAN_MOTION":15.29548678,"ECCENTRICITY":0.00097492,"INCLINATION":97.5426,"RA_OF_ASC_NODE":204.1954,"ARG_OF_PERICENTER":232.0253,"MEAN_ANOMALY":128.0107,"EPHEMERIS_TYPE":0,"CLASSIFICATION_TYPE":"U","NORAD_CAT_ID":59123,"ELEMENT_SET_NO":999,"REV_AT_EPOCH":11184,"BSTAR":0.00040142146,"MEAN_MOTION_DOT":0.0001144,"MEAN_MOTION_DDOT":0},{"OBJECT_NAME":"STARLINK-31512","OBJECT_ID":"2024-071S","EPOCH":"2026-03-09T23:12:34.001280","MEAN_MOTION":15.27591415,"ECCENTRICITY":0.0001473,"INCLINATION":43.0022,"RA_OF_ASC_NODE":298.0292,"ARG_OF_PERICENTER":263.0766,"MEAN_ANOMALY":96.9918,"EPHEMERIS_TYPE":0,"CLASSIFICATION_TYPE":"U","NORAD_CAT_ID":59500,"ELEMENT_SET_NO":999,"REV_AT_EPOCH":10870,"BSTAR":-0.00010707348,"MEAN_MOTION_DOT":-3.208e-5,"MEAN_MOTION_DDOT":0}]
